{
  "type": "FeatureCollection",
  "features": [
    {
      "type": "Feature",
      "properties": {
        "norad_id": 66637,
        "name": "STARLINK-35953",
        "group": "last-30-days",
        "lat": -24.30099717556184,
        "lon": 128.7669750342325,
        "alt_km": 450.9654948191628,
        "timestamp": "2025-12-20T20:38:43.171327+00:00",
        "meta_object_name": "STARLINK-35953",
        "meta_object_id": "2025-271W",
        "meta_epoch": "2025-12-20T14:00:03.000384",
        "meta_mean_motion": 15.396293,
        "meta_eccentricity": 0.00011296,
        "meta_inclination": 53.1593,
        "meta_ra_of_asc_node": 149.8595,
        "meta_arg_of_pericenter": 82.2556,
        "meta_mean_anomaly": 151.5206,
        "meta_ephemeris_type": 0,
        "meta_classification_type": "U",
        "meta_norad_cat_id": 66637,
        "meta_element_set_no": 999,
        "meta_rev_at_epoch": 550,
        "meta_bstar": -0.0001817507,
        "meta_mean_motion_dot": -7.664e-05,
        "meta_mean_motion_ddot": 0,
        "tle_line1": "1 66637U 25271W   25354.58336806 -.00007664  00000+0 -18175-3 0  9992",
        "tle_line2": "2 66637  53.1593 149.8595 0001129  82.2556 151.5206 15.39629300  5506"
      },
      "geometry": {
        "type": "Point",
        "coordinates": [
          128.7669750342325,
          -24.30099717556184
        ]
      }
    },
    {
      "type": "Feature",
      "properties": {
        "norad_id": 66638,
        "name": "STARLINK-35972",
        "group": "last-30-days",
        "lat": 16.238370648626912,
        "lon": 161.06521497541223,
        "alt_km": 445.8387268450415,
        "timestamp": "2025-12-20T20:38:43.171338+00:00",
        "meta_object_name": "STARLINK-35972",
        "meta_object_id": "2025-271X",
        "meta_epoch": "2025-12-20T14:00:03.000384",
        "meta_mean_motion": 15.39602548,
        "meta_eccentricity": 0.00013584,
        "meta_inclination": 53.1593,
        "meta_ra_of_asc_node": 149.7572,
        "meta_arg_of_pericenter": 109.2177,
        "meta_mean_anomaly": 175.9991,
        "meta_ephemeris_type": 0,
        "meta_classification_type": "U",
        "meta_norad_cat_id": 66638,
        "meta_element_set_no": 999,
        "meta_rev_at_epoch": 550,
        "meta_bstar": -3.8995759e-05,
        "meta_mean_motion_dot": -1.958e-05,
        "meta_mean_motion_ddot": 0,
        "tle_line1": "1 66638U 25271X   25354.58336806 -.00001958  00000+0 -38996-4 0  9997",
        "tle_line2": "2 66638  53.1593 149.7572 0001358 109.2177 175.9991 15.39602548  5500"
      },
      "geometry": {
        "type": "Point",
        "coordinates": [
          161.06521497541223,
          16.238370648626912
        ]
      }
    },
    {
      "type": "Feature",
      "properties": {
        "norad_id": 66639,
        "name": "STARLINK-35908",
        "group": "last-30-days",
        "lat": 35.362740687182644,
        "lon": -179.4540570145791,
        "alt_km": 441.79763439740054,
        "timestamp": "2025-12-20T20:38:43.171348+00:00",
        "meta_object_name": "STARLINK-35908",
        "meta_object_id": "2025-271Y",
        "meta_epoch": "2025-12-20T14:00:03.000384",
        "meta_mean_motion": 15.39606925,
        "meta_eccentricity": 0.00016758,
        "meta_inclination": 53.1596,
        "meta_ra_of_asc_node": 149.7054,
        "meta_arg_of_pericenter": 76.5109,
        "meta_mean_anomaly": 234.5457,
        "meta_ephemeris_type": 0,
        "meta_classification_type": "U",
        "meta_norad_cat_id": 66639,
        "meta_element_set_no": 999,
        "meta_rev_at_epoch": 550,
        "meta_bstar": -0.00017111465,
        "meta_mean_motion_dot": -7.235e-05,
        "meta_mean_motion_ddot": 0,
        "tle_line1": "1 66639U 25271Y   25354.58336806 -.00007235  00000+0 -17111-3 0  9997",
        "tle_line2": "2 66639  53.1596 149.7054 0001675  76.5109 234.5457 15.39606925  5504"
      },
      "geometry": {
        "type": "Point",
        "coordinates": [
          -179.4540570145791,
          35.362740687182644
        ]
      }
    },
    {
      "type": "Feature",
      "properties": {
        "norad_id": 66640,
        "name": "STARLINK-35921",
        "group": "last-30-days",
        "lat": -4.165714986086742,
        "lon": 145.37255665548474,
        "alt_km": 448.88013424916335,
        "timestamp": "2025-12-20T20:38:43.171358+00:00",
        "meta_object_name": "STARLINK-35921",
        "meta_object_id": "2025-271Z",
        "meta_epoch": "2025-12-20T14:00:03.000384",
        "meta_mean_motion": 15.39629672,
        "meta_eccentricity": 9.109e-05,
        "meta_inclination": 53.1589,
        "meta_ra_of_asc_node": 149.8078,
        "meta_arg_of_pericenter": 106.2893,
        "meta_mean_anomaly": 153.2399,
        "meta_ephemeris_type": 0,
        "meta_classification_type": "U",
        "meta_norad_cat_id": 66640,
        "meta_element_set_no": 999,
        "meta_rev_at_epoch": 550,
        "meta_bstar": -0.00018209944,
        "meta_mean_motion_dot": -7.678e-05,
        "meta_mean_motion_ddot": 0,
        "tle_line1": "1 66640U 25271Z   25354.58336806 -.00007678  00000+0 -18210-3 0  9991",
        "tle_line2": "2 66640  53.1589 149.8078 0000910 106.2893 153.2399 15.39629672  5503"
      },
      "geometry": {
        "type": "Point",
        "coordinates": [
          145.37255665548474,
          -4.165714986086742
        ]
      }
    },
    {
      "type": "Feature",
      "properties": {
        "norad_id": 66641,
        "name": "STARLINK-35923",
        "group": "last-30-days",
        "lat": 52.866531530336346,
        "lon": -129.73086049153025,
        "alt_km": 421.5377775838815,
        "timestamp": "2025-12-20T20:38:43.171381+00:00",
        "meta_object_name": "STARLINK-35923",
        "meta_object_id": "2025-271AA",
        "meta_epoch": "2025-12-20T09:25:21.254304",
        "meta_mean_motion": 15.46607991,
        "meta_eccentricity": 0.00051785,
        "meta_inclination": 53.159,
        "meta_ra_of_asc_node": 150.5492,
        "meta_arg_of_pericenter": 213.3827,
        "meta_mean_anomaly": 146.6855,
        "meta_ephemeris_type": 0,
        "meta_classification_type": "U",
        "meta_norad_cat_id": 66641,
        "meta_element_set_no": 999,
        "meta_rev_at_epoch": 539,
        "meta_bstar": 0.0019102336,
        "meta_mean_motion_dot": 0.00097517,
        "meta_mean_motion_ddot": 0,
        "tle_line1": "1 66641U 25271AA  25354.39260711  .00097517  00000+0  19102-2 0  9991",
        "tle_line2": "2 66641  53.1590 150.5492 0005178 213.3827 146.6855 15.46607991  5391"
      },
      "geometry": {
        "type": "Point",
        "coordinates": [
          -129.73086049153025,
          52.866531530336346
        ]
      }
    },
    {
      "type": "Feature",
      "properties": {
        "norad_id": 66642,
        "name": "STARLINK-35926",
        "group": "last-30-days",
        "lat": 52.98083468417569,
        "lon": -127.82283866838702,
        "alt_km": 417.27776887826894,
        "timestamp": "2025-12-20T20:38:43.171399+00:00",
        "meta_object_name": "STARLINK-35926",
        "meta_object_id": "2025-271AB",
        "meta_epoch": "2025-12-19T17:55:19.162848",
        "meta_mean_motion": 15.47687763,
        "meta_eccentricity": 0.0001998,
        "meta_inclination": 53.1589,
        "meta_ra_of_asc_node": 153.6296,
        "meta_arg_of_pericenter": 136.7356,
        "meta_mean_anomaly": 223.381,
        "meta_ephemeris_type": 0,
        "meta_classification_type": "U",
        "meta_norad_cat_id": 66642,
        "meta_element_set_no": 999,
        "meta_rev_at_epoch": 525,
        "meta_bstar": -0.0052165,
        "meta_mean_motion_dot": -0.0026545,
        "meta_mean_motion_ddot": 0,
        "tle_line1": "1 66642U 25271AB  25353.74674957 -.00265450  00000+0 -52165-2 0  9992",
        "tle_line2": "2 66642  53.1589 153.6296 0001998 136.7356 223.3810 15.47687763  5252"
      },
      "geometry": {
        "type": "Point",
        "coordinates": [
          -127.82283866838702,
          52.98083468417569
        ]
      }
    },
    {
      "type": "Feature",
      "properties": {
        "norad_id": 66643,
        "name": "STARLINK-35918",
        "group": "last-30-days",
        "lat": 51.09497351859101,
        "lon": -143.38196382218626,
        "alt_km": 423.39114092413456,
        "timestamp": "2025-12-20T20:38:43.171410+00:00",
        "meta_object_name": "STARLINK-35918",
        "meta_object_id": "2025-271AC",
        "meta_epoch": "2025-12-19T22:35:33.003744",
        "meta_mean_motion": 15.46823421,
        "meta_eccentricity": 0.0001902,
        "meta_inclination": 53.1592,
        "meta_ra_of_asc_node": 152.7109,
        "meta_arg_of_pericenter": 82.5574,
        "meta_mean_anomaly": 277.565,
        "meta_ephemeris_type": 0,
        "meta_classification_type": "U",
        "meta_norad_cat_id": 66643,
        "meta_element_set_no": 999,
        "meta_rev_at_epoch": 532,
        "meta_bstar": -0.021174,
        "meta_mean_motion_dot": -0.00986557,
        "meta_mean_motion_ddot": 0,
        "tle_line1": "1 66643U 25271AC  25353.94135421 -.00986557  00000+0 -21174-1 0  9996",
        "tle_line2": "2 66643  53.1592 152.7109 0001902  82.5574 277.5650 15.46823421  5328"
      },
      "geometry": {
        "type": "Point",
        "coordinates": [
          -143.38196382218626,
          51.09497351859101
        ]
      }
    }
  ]
}